{"type": "FeatureCollection", "features": [ {"type": "Feature", "properties": {"norad_id": 66969, "name": "STARLINK-36149", "group": "last-30-days", "lat": 42.96464843263479, "lon": 172.37375286926937, "alt_km": 379.76521631385185, "timestamp": "2025-12-26T08:37:53.293397+00:00", "meta": {"OBJECT_NAME": "STARLINK-36149", "OBJECT_ID": "2025-288L", "EPOCH": "2025-12-26T04:00:01.998720", "MEAN_MOTION": 15.61561047, "ECCENTRICITY": 0.000139, "INCLINATION": 42.9999, "RA_OF_ASC_NODE": 85.3539, "ARG_OF_PERICENTER": 279.6061, "MEAN_ANOMALY": 163.3143, "EPHEMERIS_TYPE": 0, "CLASSIFICATION_TYPE": "U", "NORAD_CAT_ID": 66969, "ELEMENT_SET_NO": 999, "REV_AT_EPOCH": 398, "BSTAR": -0.025142, "MEAN_MOTION_DOT": -0.01954562, "MEAN_MOTION_DDOT": 0}, "tle": {"line1": "1 66969U 25288L   25360.16668980 -.01954562  00000+0 -25142-1 0  9999", "line2": "2 66969  42.9999  85.3539 0001390 279.6061 163.3143 15.61561047  3984"}}, "geometry": {"type": "Point", "coordinates": [172.37375286926937, 42.96464843263479]}}, {"type": "Feature", "properties": {"norad_id": 66970, "name": "STARLINK-35703", "group": "last-30-days", "lat": 42.65379990592581, "lon": -177.1795849216395, "alt_km": 379.73999576156984, "timestamp": "2025-12-26T08:37:53.293408+00:00", "meta": {"OBJECT_NAME": "STARLINK-35703", "OBJECT_ID": "2025-288M", "EPOCH": "2025-12-26T04:00:01.998720", "MEAN_MOTION": 15.61573217, "ECCENTRICITY": 0.000126, "INCLINATION": 42.9999, "RA_OF_ASC_NODE": 85.3344, "ARG_OF_PERICENTER": 279.6905, "MEAN_ANOMALY": 170.8961, "EPHEMERIS_TYPE": 0, "CLASSIFICATION_TYPE": "U", "NORAD_CAT_ID": 66970, "ELEMENT_SET_NO": 999, "REV_AT_EPOCH": 398, "BSTAR": -0.025425, "MEAN_MOTION_DOT": -0.01974561, "MEAN_MOTION_DDOT": 0}, "tle": {"line1": "1 66970U 25288M   25360.16668980 -.01974561  00000+0 -25425-1 0  9996", "line2": "2 66970  42.9999  85.3344 0001260 279.6905 170.8961 15.61573217  3986"}}, "geometry": {"type": "Point", "coordinates": [-177.1795849216395, 42.65379990592581]}}, {"type": "Feature", "properties": {"norad_id": 66971, "name": "STARLINK-35678", "group": "last-30-days", "lat": 42.32403685942966, "lon": 161.99826938950608, "alt_km": 379.97761407426606, "timestamp": "2025-12-26T08:37:53.293418+00:00", "meta": {"OBJECT_NAME": "STARLINK-35678", "OBJECT_ID": "2025-288N", "EPOCH": "2025-12-26T04:00:01.998720", "MEAN_MOTION": 15.61555913, "ECCENTRICITY": 0.0001582, "INCLINATION": 43.0001, "RA_OF_ASC_NODE": 85.3753, "ARG_OF_PERICENTER": 275.9782, "MEAN_ANOMALY": 159.2842, "EPHEMERIS_TYPE": 0, "CLASSIFICATION_TYPE": "U", "NORAD_CAT_ID": 66971, "ELEMENT_SET_NO": 999, "REV_AT_EPOCH": 398, "BSTAR": -0.025061, "MEAN_MOTION_DOT": -0.01948756, "MEAN_MOTION_DDOT": 0}, "tle": {"line1": "1 66971U 25288N   25360.16668980 -.01948756  00000+0 -25061-1 0  9990", "line2": "2 66971  43.0001  85.3753 0001582 275.9782 159.2842 15.61555913  3988"}}, "geometry": {"type": "Point", "coordinates": [161.99826938950608, 42.32403685942966]}}, {"type": "Feature", "properties": {"norad_id": 66972, "name": "STARLINK-34846", "group": "last-30-days", "lat": 42.57114568028091, "lon": 164.5624650744818, "alt_km": 379.9047084770991, "timestamp": "2025-12-26T08:37:53.293428+00:00", "meta": {"OBJECT_NAME": "STARLINK-34846", "OBJECT_ID": "2025-288P", "EPOCH": "2025-12-26T04:00:01.998720", "MEAN_MOTION": 15.61563227, "ECCENTRICITY": 0.0001557, "INCLINATION": 42.9997, "RA_OF_ASC_NODE": 85.3701, "ARG_OF_PERICENTER": 278.3261, "MEAN_ANOMALY": 158.841, "EPHEMERIS_TYPE": 0, "CLASSIFICATION_TYPE": "U", "NORAD_CAT_ID": 66972, "ELEMENT_SET_NO": 999, "REV_AT_EPOCH": 398, "BSTAR": -0.025112, "MEAN_MOTION_DOT": -0.01952759, "MEAN_MOTION_DDOT": 0}, "tle": {"line1": "1 66972U 25288P   25360.16668980 -.01952759  00000+0 -25112-1 0  9996", "line2": "2 66972  42.9997  85.3701 0001557 278.3261 158.8410 15.61563227  3988"}}, "geometry": {"type": "Point", "coordinates": [164.5624650744818, 42.57114568028091]}}, {"type": "Feature", "properties": {"norad_id": 66973, "name": "STARLINK-35778", "group": "last-30-days", "lat": 42.76161668772281, "lon": 167.15781346087783, "alt_km": 379.75110811484956, "timestamp": "2025-12-26T08:37:53.293438+00:00", "meta": {"OBJECT_NAME": "STARLINK-35778", "OBJECT_ID": "2025-288Q", "EPOCH": "2025-12-26T04:00:01.998720", "MEAN_MOTION": 15.61564576, "ECCENTRICITY": 0.0001389, "INCLINATION": 42.9997, "RA_OF_ASC_NODE": 85.3652, "ARG_OF_PERICENTER": 283.0127, "MEAN_ANOMALY": 156.0727, "EPHEMERIS_TYPE": 0, "CLASSIFICATION_TYPE": "U", "NORAD_CAT_ID": 66973, "ELEMENT_SET_NO": 999, "REV_AT_EPOCH": 398, "BSTAR": -0.025188, "MEAN_MOTION_DOT": -0.01957926, "MEAN_MOTION_DDOT": 0}, "tle": {"line1": "1 66973U 25288Q   25360.16668980 -.01957926  00000+0 -25188-1 0  9991", "line2": "2 66973  42.9997  85.3652 0001389 283.0127 156.0727 15.61564576  3980"}}, "geometry": {"type": "Point", "coordinates": [167.15781346087783, 42.76161668772281]}}, {"type": "Feature", "properties": {"norad_id": 66974, "name": "STARLINK-35780", "group": "last-30-days", "lat": 42.89331921848955, "lon": 169.76329042926733, "alt_km": 379.7094864956671, "timestamp": "2025-12-26T08:37:53.293448+00:00", "meta": {"OBJECT_NAME": "STARLINK-35780", "OBJECT_ID": "2025-288R", "EPOCH": "2025-12-26T04:00:01.998720", "MEAN_MOTION": 15.61569642, "ECCENTRICITY": 0.000134, "INCLINATION": 43.0002, "RA_OF_ASC_NODE": 85.36, "ARG_OF_PERICENTER": 282.9069, "MEAN_ANOMALY": 158.0937, "EPHEMERIS_TYPE": 0, "CLASSIFICATION_TYPE": "U", "NORAD_CAT_ID": 66974, "ELEMENT_SET_NO": 999, "REV_AT_EPOCH": 398, "BSTAR": -0.025311, "MEAN_MOTION_DOT": -0.01966635, "MEAN_MOTION_DDOT": 0}, "tle": {"line1": "1 66974U 25288R   25360.16668980 -.01966635  00000+0 -25311-1 0  9997", "line2": "2 66974  43.0002  85.3600 0001340 282.9069 158.0937 15.61569642  3987"}}, "geometry": {"type": "Point", "coordinates": [169.76329042926733, 42.89331921848955]}}, {"type": "Feature", "properties": {"norad_id": 66975, "name": "STARLINK-35777", "group": "last-30-days", "lat": 42.97646511377376, "lon": 174.99163034656766, "alt_km": 379.7689932673675, "timestamp": "2025-12-26T08:37:53.293479+00:00", "meta": {"OBJECT_NAME": "STARLINK-35777", "OBJECT_ID": "2025-288S", "EPOCH": "2025-12-26T04:00:01.998720", "MEAN_MOTION": 15.61566477, "ECCENTRICITY": 0.0001392, "INCLINATION": 42.9998, "RA_OF_ASC_NODE": 85.3491, "ARG_OF_PERICENTER": 278.7251, "MEAN_ANOMALY": 166.1098, "EPHEMERIS_TYPE": 0, "CLASSIFICATION_TYPE": "U", "NORAD_CAT_ID": 66975, "ELEMENT_SET_NO": 999, "REV_AT_EPOCH": 398, "BSTAR": -0.025233, "MEAN_MOTION_DOT": -0.01961122, "MEAN_MOTION_DDOT": 0}, "tle": {"line1": "1 66975U 25288S   25360.16668980 -.01961122  00000+0 -25233-1 0  9997", "line2": "2 66975  42.9998  85.3491 0001392 278.7251 166.1098 15.61566477  3982"}}, "geometry": {"type": "Point", "coordinates": [174.99163034656766, 42.97646511377376]}}, {"type": "Feature", "properties": {"norad_id": 66976, "name": "STARLINK-35772", "group": "last-30-days", "lat": -42.85426363375222, "lon": -9.824954225521417, "alt_km": 446.68896028367817, "timestamp": "2025-12-26T08:37:53.293495+00:00", "meta": {"OBJECT_NAME": "STARLINK-35772", "OBJECT_ID": "2025-288T", "EPOCH": "2025-12-26T04:00:01.998720", "MEAN_MOTION": 15.40636944, "ECCENTRICITY": 0.0001238, "INCLINATION": 43.0004, "RA_OF_ASC_NODE": 86.6612, "ARG_OF_PERICENTER": 249.4191, "MEAN_ANOMALY": 25.1669, "EPHEMERIS_TYPE": 0, "CLASSIFICATION_TYPE": "U", "NORAD_CAT_ID": 66976, "ELEMENT_SET_NO": 999, "REV_AT_EPOCH": 398, "BSTAR": 0.0020471, "MEAN_MOTION_DOT": 0.00085996, "MEAN_MOTION_DDOT": 0}, "tle": {"line1": "1 66976U 25288T   25360.16668980  .00085996  00000+0  20471-2 0  9991", "line2": "2 66976  43.0004  86.6612 0001238 249.4191  25.1669 15.40636944  3981"}}, "geometry": {"type": "Point", "coordinates": [-9.824954225521417, -42.85426363375222]}}, {"type": "Feature", "properties": {"norad_id": 66977, "name": "STARLINK-35770", "group": "last-30-days", "lat": 42.928413200851914, "lon": 177.61263206965467, "alt_km": 379.66305393398306, "timestamp": "2025-12-26T08:37:53.293505+00:00", "meta": {"OBJECT_NAME": "STARLINK-35770", "OBJECT_ID": "2025-288U", "EPOCH": "2025-12-26T04:00:01.998720", "MEAN_MOTION": 15.61569232, "ECCENTRICITY": 0.0001213, "INCLINATION": 42.9998, "RA_OF_ASC_NODE": 85.3453, "ARG_OF_PERICENTER": 278.2729, "MEAN_ANOMALY": 168.4812, "EPHEMERIS_TYPE": 0, "CLASSIFICATION_TYPE": "U", "NORAD_CAT_ID": 66977, "ELEMENT_SET_NO": 999, "REV_AT_EPOCH": 398, "BSTAR": -0.025329, "MEAN_MOTION_DOT": -0.01967725, "MEAN_MOTION_DDOT": 0}, "tle": {"line1": "1 66977U 25288U   25360.16668980 -.01967725  00000+0 -25329-1 0  9990", "line2": "2 66977  42.9998  85.3453 0001213 278.2729 168.4812 15.61569232  3980"}}, "geometry": {"type": "Point", "coordinates": [177.61263206965467, 42.928413200851914]}}, {"type": "Feature", "properties": {"norad_id": 66978, "name": "STARLINK-35787", "group": "last-30-days", "lat": 42.428573882654845, "lon": -174.59928315754286, "alt_km": 379.745651781328, "timestamp": "2025-12-26T08:37:53.293515+00:00", "meta": {"OBJECT_NAME": "STARLINK-35787", "OBJECT_ID": "2025-288V", "EPOCH": "2025-12-26T04:00:01.998720", "MEAN_MOTION": 15.61571365, "ECCENTRICITY": 0.0001222, "INCLINATION": 43, "RA_OF_ASC_NODE": 85.3302, "ARG_OF_PERICENTER": 282.5303, "MEAN_ANOMALY": 169.9713, "EPHEMERIS_TYPE": 0, "CLASSIFICATION_TYPE": "U", "NORAD_CAT_ID": 66978, "ELEMENT_SET_NO": 999, "REV_AT_EPOCH": 398, "BSTAR": -0.02536, "MEAN_MOTION_DOT": -0.01970031, "MEAN_MOTION_DDOT": 0}, "tle": {"line1": "1 66978U 25288V   25360.16668980 -.01970031  00000+0 -25360-1 0  9990", "line2": "2 66978  43.0000  85.3302 0001222 282.5303 169.9713 15.61571365  3982"}}, "geometry": {"type": "Point", "coordinates": [-174.59928315754286, 42.428573882654845]}}]}